{"type":"FeatureCollection","features":[{"type":"Feature","id":"2356ccb5-69ba-4f39-8521-edf16df532e3","geometry":{"type":"Polygon","coordinates":[[[5, 0],[0, 3506],[1556, 3506],[1827, 1716],[3493, 0],[5, 0]]]},"properties":{"objectType":"annotation","classification":{"name":"DCIS","color":[206, 153, 216]}}},{"type":"Feature","id":"d8236654-0b9d-4d97-aaa7-297b1920811a","geometry":{"type":"Polygon","coordinates":[[[3493, 0],[1827, 1716],[1556, 3506],[5802, 3506],[5817, 0],[3493, 0]]]},"properties":{"objectType":"annotation","classification":{"name":"Invasive","color":[83, 119, 82]}}}]}