{"type":"FeatureCollection","features":[{"type":"Feature","id":"243864d0-1de4-44f8-9b83-7ce27db33532","geometry":{"type":"Polygon","coordinates":[[[9898, 0],[0, 7],[0, 5133],[1918, 6812],[3091, 5748],[2574, 3873],[3957, 1373],[5801, 1219],[6946, 3523],[6597, 6812],[9898, 6812],[9898, 0]]]},"properties":{"objectType":"annotation","classification":{"name":"Area 2","color":[234, 46, 56]}}},{"type":"Feature","id":"960ad263-d154-4904-a11f-7fc6b6763524","geometry":{"type":"Polygon","coordinates":[[[5801, 1219],[3957, 1373],[2574, 3873],[3091, 5748],[3186, 6812],[6597, 6812],[6946, 3523],[5801, 1219]]]},"properties":{"objectType":"annotation","classification":{"name":"Area 1","color":[234, 233, 13]}}}]}