{"type":"FeatureCollection","features":[{"type":"Feature","id":"f8fc0bb4-2602-47c2-a819-cc749a4cfd90","geometry":{"type":"Polygon","coordinates":[[[17583, 716],[17583, 20294],[25398, 20294],[25398, 716],[17583, 716]]]},"properties":{"objectType":"annotation","name":"M1"}},{"type":"Feature","id":"e58bf60e-67b4-42de-b80e-daa4751af9a0","geometry":{"type":"Polygon","coordinates":[[[0, 20294],[10732, 20294],[10758, 20254],[10784, 20176],[10810, 20098],[10836, 20019],[10836, 19967],[10836, 19889],[10862, 19785],[10888, 19655],[10888, 19524],[10914, 19394],[10940, 19290],[10940, 19212],[10940, 19160],[10940, 19108],[10940, 19082],[10940, 19003],[10940, 18925],[10940, 18821],[10940, 18665],[10940, 18535],[10940, 18378],[10940, 18274],[10940, 18170],[10940, 18014],[10940, 17909],[10940, 17545],[10940, 17284],[10940, 17024],[10914, 16737],[10914, 16529],[10914, 16138],[10914, 15695],[10914, 15096],[10914, 14757],[10888, 14419],[10888, 14054],[10888, 13793],[10888, 13585],[10888, 13403],[10888, 13299],[10888, 13220],[10888, 13090],[10862, 12960],[10862, 12725],[10810, 12439],[10784, 12152],[10758, 11892],[10706, 11605],[10706, 11345],[10680, 11110],[10654, 10928],[10654, 10746],[10628, 10589],[10628, 10459],[10628, 10355],[10602, 10225],[10602, 10068],[10576, 9886],[10550, 9782],[10550, 9652],[10524, 9495],[10472, 9339],[10446, 9157],[10446, 9052],[10446, 8974],[10419, 8870],[10419, 8792],[10419, 8714],[10419, 8662],[10393, 8584],[10367, 8505],[10341, 8401],[10315, 8349],[10315, 8219],[10315, 8167],[10315, 8063],[10289, 7880],[10185, 7515],[9977, 6968],[9898, 6682],[9846, 6447],[9820, 6265],[9768, 6083],[9742, 5874],[9716, 5718],[9690, 5562],[9664, 5353],[9612, 5171],[9560, 5015],[9508, 4832],[9456, 4728],[9430, 4650],[9430, 4598],[9404, 4520],[9377, 4494],[9377, 4416],[9325, 4363],[9247, 4259],[9221, 4155],[9143, 4025],[9065, 3947],[9013, 3816],[8961, 3686],[8909, 3608],[8830, 3452],[8778, 3374],[8726, 3269],[8648, 3191],[8622, 3139],[8570, 3087],[8544, 3061],[8544, 3035],[8518, 3009],[8492, 3009],[8492, 2983],[8440, 2957],[8388, 2853],[8283, 2748],[8049, 2410],[7788, 2019],[7736, 1889],[7710, 1837],[7684, 1784],[7658, 1758],[7632, 1706],[7606, 1654],[7580, 1602],[7528, 1576],[7476, 1498],[7424, 1446],[7398, 1420],[7372, 1368],[7346, 1342],[7293, 1290],[7293, 1237],[7241, 1211],[7215, 1133],[7163, 1081],[7137, 1029],[7111, 1029],[7111, 1003],[7085, 1003],[7085, 977],[7033, 951],[7007, 899],[6955, 847],[6877, 769],[6799, 690],[6746, 664],[6720, 586],[6668, 560],[6642, 534],[6590, 534],[6564, 508],[6512, 508],[6460, 482],[6408, 482],[6304, 456],[6199, 456],[6095, 430],[5991, 430],[5783, 404],[5678, 404],[5548, 378],[5157, 300],[4688, 195],[4324, 117],[4141, 91],[3803, 91],[3620, 65],[3412, 65],[3178, 39],[2891, 13],[1771, 13],[1745, 39],[1328, 39],[1328, 65],[1224, 65],[1120, 91],[1041, 117],[911, 117],[755, 143],[651, 169],[494, 169],[442, 195],[338, 195],[286, 221],[0, 20294]]]},"properties":{"objectType":"annotation","name":"H1"}},{"type":"Feature","id":"7a21a72d-7fe9-4bb1-b3b8-7460487d7817","geometry":{"type":"Polygon","coordinates":[[[34750, 0],[34750, 20294],[42748, 20294],[42748, 0],[34750, 0]]]},"properties":{"objectType":"annotation","name":"M3"}},{"type":"Feature","id":"ca7f3adf-fbda-4e37-8b2b-1d7138e3c29e","geometry":{"type":"Polygon","coordinates":[[[25659, 0],[25659, 20294],[34568, 20294],[34568, 0],[25659, 0]]]},"properties":{"objectType":"annotation","name":"M2"}}]}