{"type":"FeatureCollection","features":[{"type":"Feature","id":"06024e24-3bfa-4a30-a219-a7b6467af0b0","geometry":{"type":"Polygon","coordinates":[[[2441, 2805],[2441, 6000],[4729, 6000],[4729, 2805],[2441, 2805]]]},"properties":{"objectType":"annotation"}},{"type":"Feature","id":"1c6480c4-ced5-48ee-94ef-f5cff664a67a","geometry":{"type":"Polygon","coordinates":[[[48, 2799],[48, 6000],[2338, 6000],[2338, 2799],[48, 2799]]]},"properties":{"objectType":"annotation"}},{"type":"Feature","id":"c4d0e659-5af0-4b36-b4d5-4c7c9713303f","geometry":{"type":"Polygon","coordinates":[[[2464, 0],[2464, 2765],[4720, 2765],[4720, 0],[2464, 0]]]},"properties":{"objectType":"annotation"}},{"type":"Feature","id":"418ba586-9a3c-4d41-b7d7-a8a5b3dac264","geometry":{"type":"Polygon","coordinates":[[[48, 22],[48, 2788],[2424, 2788],[2424, 22],[48, 22]]]},"properties":{"objectType":"annotation"}}]}